A/2021 E2,e,167.4891,190.8058,342.3252,215.7164,0.0003111,0.98941593,0.0000,12/10.1053/2020,2000,g 15.0,2.0
# From MPEC 2024-B57
C/2021 E3 (ZTF),h,06/11.8232/2022,112.5364,104.4820,228.8373,1.000622,1.777144,2000,8.5,4.0
# From MPEC 2023-SQ0
A/2021 E4,e,116.3624,171.1651,48.2653,544.4482,0.0000776,0.99141015,0.0000,04/25.0704/2022,2000,g 13.5,22.0
# From MPEC 2022-QD9
C/2021 F1 (Lemmon-PANSTARRS),e,107.3175,203.4720,146.8673,241.4677,0.0002627,0.99587125,0.0000,04/06.8039/2022,2000,g 13.5,4.0
# From MPEC 2021-J72
C/2021 G1 (Leonard),e,131.5478,270.6989,107.4453,72.91059,0.0015831,0.95303331,1.4540,01/26.0/2024,2000,g 14.0,4.0
# From MPEC 2024-B57
C/2021 G2 (ATLAS),e,48.4747,221.0940,343.2956,30919,0.0000002,0.99983886,0.0000,09/09.3513/2024,2000,g  5.5,4.0
# From MPEC 2022-X67
C/2021 G3 (PANSTARRS),e,102.8701,147.3896,10.5841,17099,0.0000004,0.99969706,0.0000,10/17.9681/2021,2000,g 10.5,4.0
# From MPEC 2021-Y10
P/2021 HS (PANSTARRS),e,12.1576,262.3688,46.1373,4.194482,0.1147325,0.80961189,103.6094,01/26.0/2024,2000,g 22.0,4.0
# From MPEC 2022-C56
C/2021 J1 (Maury-Attard),e,92.7160,88.3988,147.2922,26.32664,0.0072964,0.93393674,7.8118,01/26.0/2024,2000,g 15.5,4.0
# From MPEC 2023-XP6
C/2021 J2 (PANSTARRS),e,156.2128,23.3327,171.9720,115.8416,0.0007905,0.95940065,0.6768,01/26.0/2024,2000,g 12.0,4.0
# From MPEC 2023-VM5
P/2021 J3 (ATLAS),e,14.5262,111.1164,125.8906,8.917295,0.0370130,0.44899099,61.7549,01/26.0/2024,2000,g  7.0,4.0
# From MPEC 2022-O08
C/2021 K1 (ATLAS),e,16.2740,140.9135,184.2716,12.65131,0.0219029,0.80238893,21.8405,01/26.0/2024,2000,g 11.0,4.0
# From MPEC 2022-O01
C/2021 K2 (MASTER),h,09/09.7137/2021,100.8591,282.3136,343.3478,1.000951,5.468931,2000,8.0,4.0
# From MPEC 2022-L66
C/2021 K3 (Catalina),h,02/03.9443/2022,134.7759,114.5752,182.0523,1.004414,5.231928,2000,10.0,4.0
# From MPEC 2021-W31
P/2021 L2 (Leonard),e,21.0657,266.6551,51.5023,4.048656,0.1209868,0.52087357,110.8328,01/26.0/2024,2000,g 17.0,4.0
# From MPEC 2023-M14
C/2021 L3 (Borisov),h,02/14.5164/2022,78.5684,344.9912,91.6262,1.004260,8.458440,2000,10.1,4.0
# From MPEC 2022-TA0
P/2021 N1 (ZTF),e,11.4913,301.1537,21.2375,2.978560,0.1917320,0.67607301,184.8007,01/26.0/2024,2000,g 19.0,4.0
# From MPEC 2024-AF0
P/2021 N2 (Fuls),e,13.0612,221.7320,177.5237,6.941879,0.0538876,0.45259670,43.2610,01/26.0/2024,2000,g  9.5,4.0
# From MPEC 2022-YB4
C/2021 N3 (PANSTARRS),e,26.7461,337.4987,304.7311,147.2448,0.0005516,0.96117241,0.6925,01/26.0/2024,2000,g  8.5,4.0
# From MPEC 2022-A21
C/2021 O1 (Nishimura),e,27.5958,41.5957,74.3961,2644,0.0000073,0.99970333,0.0000,08/14.1986/2021,2000,g 10.5,4.0
# From MPEC 2022-L66
C/2021 O3 (PANSTARRS),h,04/21.0897/2022,56.7976,188.9792,299.9570,1.000046,0.286344,2000,10.5,4.0
# From MPEC 2022-CN4
C/2021 P1 (PANSTARRS),e,51.6385,359.7019,40.4711,2329,0.0000088,0.99812146,0.0000,06/02.5209/2022,2000,g 11.0,4.0
# From MPEC 2023-R20
C/2021 P2 (PANSTARRS),e,150.0631,32.0816,76.7142,4071,0.0000038,0.99875463,0.0000,01/22.9289/2023,2000,g  9.0,4.0
# From MPEC 2021-W31
P/2021 P3 (PANSTARRS),e,27.1612,358.2431,334.0886,4.412368,0.1063399,0.33878480,103.2786,01/26.0/2024,2000,g 14.0,4.0
# From MPEC 2023-A50
C/2021 P4 (ATLAS),e,56.3200,348.0746,175.7976,299.5694,0.0001901,0.99639556,0.0000,07/30.3391/2022,2000,g  9.5,4.0
# From MPEC 2023-E68
P/2021 PE20 (ATLAS),e,20.0030,99.6279,210.4705,3.745914,0.1359463,0.67005997,130.9664,01/26.0/2024,2000,g 17.0,4.0
# From MPEC 2023-FK0
C/2021 Q3 (ATLAS),e,77.7448,307.9152,114.1132,75.67350,0.0014972,0.93121189,1.0925,01/26.0/2024,2000,g  8.0,4.0
# From MPEC 2024-B57
C/2021 Q4 (Fuls),h,06/11.2381/2023,71.4812,183.3293,147.0534,1.002991,7.565041,2000,6.0,4.0
# From MPEC 2022-C56
P/2021 Q5 (ATLAS),e,10.7389,239.7577,180.9277,3.286850,0.1653995,0.62464598,145.2523,01/26.0/2024,2000,g 15.0,4.0
# From MPEC 2023-XP6
C/2021 Q6 (PANSTARRS),h,03/24.8960/2024,161.8473,133.5350,141.0127,1.000748,8.707859,2000,6.0,4.0
# From MPEC 2023-FK0
C/2021 QM45 (PANSTARRS),e,22.8179,354.5952,72.8467,383.5033,0.0001312,0.99276577,0.0000,08/13.6036/2022,2000,g 11.0,4.0
# From MPEC 2022-X67
P/2021 R1 (PANSTARRS),e,5.5204,143.2710,220.2736,8.308092,0.0411578,0.41192877,31.7825,01/26.0/2024,2000,g 11.0,4.0
# From MPEC 2022-X67
C/2021 R2 (PANSTARRS),e,134.4832,16.3038,32.4886,3537,0.0000047,0.99793192,0.0000,12/27.5388/2021,2000,g  7.5,4.0
# From MPEC 2021-W31
P/2021 R3 (PANSTARRS),e,19.9313,304.1959,2.7196,3.771354,0.1345731,0.33100742,131.2721,01/26.0/2024,2000,g 16.0,4.0
# From MPEC 2021-W31
P/2021 R4 (Wierzchos),e,21.0286,321.2967,56.7004,5.624548,0.0738878,0.58588513,61.6192,01/26.0/2024,2000,g 16.0,4.0
# From MPEC 2022-Y15
P/2021 R5 (Rankin),e,7.8545,219.9546,167.5156,4.795295,0.0938601,0.30655023,69.7681,01/26.0/2024,2000,g 12.0,4.0
# From MPEC 2021-W31
P/2021 R6 (Groeller),e,34.9188,176.1579,220.8024,6.283951,0.0625684,0.59341618,51.0442,01/26.0/2024,2000,g 14.5,4.0
# From MPEC 2022-X67
C/2021 R7 (PANSTARRS),e,158.8614,170.1642,140.2988,861.9895,0.0000389,0.99344407,0.0000,04/16.5465/2021,2000,g 10.5,4.0
# From MPEC 2021-Y10
P/2021 R8 (Sheppard),e,2.2033,167.0746,190.8272,3.018779,0.1879131,0.29314906,157.9585,01/26.0/2024,2000,g 18.5,4.0
# From MPEC 2023-J29
C/2021 S1 (ATLAS),h,03/01.4126/2022,52.0578,299.8731,148.2245,1.002462,6.120342,2000,7.0,4.0
# From MPEC 2024-B57
C/2021 S3 (PANSTARRS),h,02/14.7123/2024,58.5330,215.6209,6.8562,1.000288,1.320206,2000,5.5,4.0
# From MPEC 2024-B57
C/2021 S4 (Tsuchinshan),e,17.4786,5.4874,72.9005,163.5099,0.0004714,0.95908952,0.0110,01/26.0/2024,2000,g  6.5,4.0
# From MPEC 2022-OB6
C/2021 T1 (Lemmon),e,140.3602,56.8452,51.5519,1741,0.0000136,0.99824249,0.0000,10/14.3123/2021,2000,g 12.5,4.0
# From MPEC 2023-A50
C/2021 T2 (Fuls),h,06/08.0055/2022,117.5394,223.2343,263.5912,1.000480,1.247081,2000,12.0,4.0
# From MPEC 2024-B57
C/2021 T4 (Lemmon),e,160.7776,257.8857,329.8202,24213,0.0000003,0.99993874,0.0000,07/31.5393/2023,2000,g  7.5,4.0
# From MPEC 2022-ED3
P/2021 U1 (Wierzchos),e,30.5519,246.7956,145.1452,8.531432,0.0395522,0.71303259,33.4944,01/26.0/2024,2000,g 14.5,4.0
# From MPEC 2022-L66
P/2021 U3 (Attard-Maury),e,69.9586,75.0996,335.2634,4.194563,0.1147292,0.54986044,94.4308,01/26.0/2024,2000,g 15.5,4.0
# From MPEC 2021-W31
C/2021 U4 (Leonard),e,152.8880,241.8084,237.3270,45.12397,0.0032516,0.96035683,2.4873,01/26.0/2024,2000,g 17.0,4.0
# From MPEC 2022-WQ9
C/2021 U5 (Catalina),e,39.0464,182.7405,321.4278,217.2375,0.0003078,0.98913154,0.0000,01/26.6357/2022,2000,g 13.0,4.0
# From MPEC 2022-CN4
C/2021 V1 (Rankin),e,71.4530,207.6692,195.1566,659.9897,0.0000581,0.99543110,0.0000,04/30.5482/2022,2000,g 13.0,4.0
# From MPEC 2024-B57
P/2021 V2 (Fuls),e,12.6946,232.2762,259.8485,9.072148,0.0360694,0.61458161,13.3269,01/26.0/2024,2000,g 10.0,4.0
# From MPEC 2024-B57
C/2021 X1 (Maury-Attard),h,05/27.1368/2023,140.0980,10.5919,334.5615,1.000349,3.233312,2000,7.0,4.0
# From MPEC 2023-A50
A/2021 X2,h,07/08.0844/2022,137.1612,228.8228,193.3062,1.000852,2.995356,2000,16.0,2.0
# From MPEC 2023-XP6
C/2021 Y1 (ATLAS),h,04/30.7401/2023,77.1925,244.7678,245.8297,1.001077,2.032508,2000,7.0,4.0
# From MPEC 2022-YN2
C/2022 A1 (Sarneczky),e,116.5286,285.5122,201.2363,350.4670,0.0001502,0.99642228,0.0000,01/31.0686/2022,2000,g 18.0,4.0
# From MPEC 2024-AF0
C/2022 A2 (PANSTARRS),h,02/18.2526/2023,108.1323,171.5833,88.3697,1.000328,1.735404,2000,9.5,4.0
# From MPEC 2024-B57
C/2022 A3 (Lemmon-ATLAS),e,88.3412,325.4760,234.8500,870.2808,0.0000384,0.99574440,0.0000,09/28.8671/2023,2000,g  8.0,4.0
# From MPEC 2022-K19
P/2022 B1 (Wierzchos),e,10.9899,325.4409,148.8635,5.466943,0.0771058,0.65331167,53.9364,01/26.0/2024,2000,g 16.5,4.0
# From MPEC 2022-YB4
A/2022 B3,e,132.0533,286.1869,150.6966,740.6764,0.0000489,0.99500461,0.0000,01/17.3208/2022,2000,g 16.5,2.0
# From MPEC 2022-GA9
C/2022 B4 (Bok),e,20.0458,340.6142,152.9451,383.0729,0.0001315,0.99640383,0.0000,01/30.0093/2022,2000,g 21.0,4.0
# From MPEC 2023-J29
P/2022 BV9 (Lemmon),e,11.9305,337.3086,16.3029,4.362835,0.1081561,0.23437767,128.6082,01/26.0/2024,2000,g  9.5,4.0
# From MPEC 2023-J29
P/2022 C1 (PANSTARRS),e,4.7622,113.1218,9.3590,7.226377,0.0507368,0.44863207,41.2199,01/26.0/2024,2000,g 12.0,4.0
# From MPEC 2023-VM5
P/2022 C2 (PANSTARRS),e,9.9820,135.2607,89.2349,6.037883,0.0664319,0.44192013,35.7305,01/26.0/2024,2000,g 12.5,4.0
# From MPEC 2023-UR6
P/2022 C3 (PANSTARRS),e,12.8194,139.0427,93.8901,9.626356,0.0329998,0.54566891,18.9521,01/26.0/2024,2000,g 11.5,4.0
# From MPEC 2022-K19
P/2022 D1 (PANSTARRS),e,44.0779,47.9585,88.6633,7.403078,0.0489312,0.54747611,43.1019,01/26.0/2024,2000,g 12.5,4.0
# From MPEC 2022-K19
C/2022 D2 (Kowalski),e,22.6608,312.4239,177.7959,372.2054,0.0001373,0.99582579,0.0000,03/27.6657/2022,2000,g 17.0,4.0
# From MPEC 2024-B57
C/2022 E2 (ATLAS),h,09/14.0784/2024,137.1254,125.3703,41.7084,1.000728,3.666469,2000,5.0,4.0
# From MPEC 2024-AF0
C/2022 E3 (ZTF),h,01/12.7464/2023,109.1682,302.5529,145.8119,1.000124,1.112379,2000,7.5,4.0
# From MPEC 2023-R20
C/2022 F1 (ATLAS),e,57.9801,350.6462,278.2900,4568,0.0000032,0.99869196,0.0000,08/05.2229/2022,2000,g  7.0,4.0
# From MPEC 2022-QD9
C/2022 F2 (NEOWISE),e,97.3133,58.7835,200.6215,24.02673,0.0083688,0.93390332,5.6380,01/26.0/2024,2000,g 14.5,4.0
# From MPEC 2023-J95
C/2022 H1 (PANSTARRS),e,49.8367,6.3393,246.1496,723.2485,0.0000507,0.98935807,0.0000,01/17.1154/2024,2000,g  6.0,4.0
# From MPEC 2022-VC5
C/2022 J1 (Maury-Attard),e,105.9498,280.7591,305.6642,47.62044,0.0029993,0.96631995,2.1173,01/26.0/2024,2000,g 14.9,4.0
# From MPEC 2023-M14
C/2022 J2 (Bok),e,149.1364,252.6437,133.0801,91.27959,0.0011302,0.98000039,0.0000,10/27.0195/2022,2000,g  9.0,4.0
# From MPEC 2024-B57
C/2022 JK5 (PANSTARRS),e,16.8318,59.6464,247.2044,43.52110,0.0034328,0.93824677,0.9339,01/26.0/2024,2000,g 11.0,4.0
# From MPEC 2022-ST7
C/2022 K1 (Leonard),h,12/17.3300/2021,41.9637,136.3335,142.6436,1.002113,3.989007,2000,11.0,4.0
# From MPEC 2023-CD7
C/2022 L1 (Catalina),e,123.4537,300.0327,59.8413,510.5434,0.0000854,0.99688347,0.0000,09/28.2125/2022,2000,g 15.8,4.0
